QZS-1R                  
1 49336U 21096A   23198.64571361 -.00000315  00000+0  00000+0 0  9997
2 49336  35.2531  95.6672 0758230 271.9405 292.6959  1.00247401  6326
